GALAXY 11 (G-11)        
1 26038U 99071A   17345.89212859  .00000131  00000-0  00000-0 0  9994
2 26038   0.0884  94.8138 0000463 216.3805 135.6605  1.00272734 65937
